[{"OBJECT_NAME":"ONEWEB-0427","OBJECT_ID":"2021-132AG","EPOCH":"2026-05-22T06:01:43.782816","MEAN_MOTION":13.1868699,"ECCENTRICITY":0.0002006,"INCLINATION":87.9174,"RA_OF_ASC_NODE":340.5952,"ARG_OF_PERICENTER":93.3482,"MEAN_ANOMALY":266.788,"EPHEMERIS_TYPE":0,"CLASSIFICATION_TYPE":"U","NORAD_CAT_ID":50499,"ELEMENT_SET_NO":999,"REV_AT_EPOCH":21819,"BSTAR":0.00020717,"MEAN_MOTION_DOT":9.5e-07,"MEAN_MOTION_DDOT":0.0},{"OBJECT_NAME":"ONEWEB-0429","OBJECT_ID":"2021-132AH","EPOCH":"2026-05-22T02:03:46.552608","MEAN_MOTION":13.1868883,"ECCENTRICITY":0.0001762,"INCLINATION":87.9169,"RA_OF_ASC_NODE":340.6544,"ARG_OF_PERICENTER":87.3141,"MEAN_ANOMALY":272.8193,"EPHEMERIS_TYPE":0,"CLASSIFICATION_TYPE":"U","NORAD_CAT_ID":50500,"ELEMENT_SET_NO":999,"REV_AT_EPOCH":21814,"BSTAR":-0.00028613,"MEAN_MOTION_DOT":-1e-06,"MEAN_MOTION_DDOT":0.0},{"OBJECT_NAME":"ONEWEB-0430","OBJECT_ID":"2021-132AJ","EPOCH":"2026-05-22T01:46:47.192448","MEAN_MOTION":13.18686219,"ECCENTRICITY":0.0001585,"INCLINATION":87.9162,"RA_OF_ASC_NODE":340.6555,"ARG_OF_PERICENTER":88.9236,"MEAN_ANOMALY":271.2078,"EPHEMERIS_TYPE":0,"CLASSIFICATION_TYPE":"U","NORAD_CAT_ID":50501,"ELEMENT_SET_NO":999,"REV_AT_EPOCH":21818,"BSTAR":5.6496e-05,"MEAN_MOTION_DOT":3.5e-07,"MEAN_MOTION_DDOT":0.0},{"OBJECT_NAME":"ONEWEB-0432","OBJECT_ID":"2021-132AK","EPOCH":"2026-05-22T06:12:49.447296","MEAN_MOTION":13.18713437,"ECCENTRICITY":0.0001558,"INCLINATION":87.9169,"RA_OF_ASC_NODE":340.5901,"ARG_OF_PERICENTER":105.725,"MEAN_ANOMALY":254.4055,"EPHEMERIS_TYPE":0,"CLASSIFICATION_TYPE":"U","NORAD_CAT_ID":50502,"ELEMENT_SET_NO":999,"REV_AT_EPOCH":21816,"BSTAR":0.00015158,"MEAN_MOTION_DOT":7.3e-07,"MEAN_MOTION_DDOT":0.0},{"OBJECT_NAME":"ONEWEB-0440","OBJECT_ID":"2021-132AL","EPOCH":"2026-05-22T05:54:27.302112","MEAN_MOTION":13.18688414,"ECCENTRICITY":0.0001946,"INCLINATION":87.9171,"RA_OF_ASC_NODE":340.6153,"ARG_OF_PERICENTER":78.2925,"MEAN_ANOMALY":281.8425,"EPHEMERIS_TYPE":0,"CLASSIFICATION_TYPE":"U","NORAD_CAT_ID":50503,"ELEMENT_SET_NO":999,"REV_AT_EPOCH":21815,"BSTAR":-0.0001273,"MEAN_MOTION_DOT":-3.7e-07,"MEAN_MOTION_DDOT":0.0},{"OBJECT_NAME":"ONEWEB-0450","OBJECT_ID":"2021-132AM","EPOCH":"2026-05-22T05:44:56.831424","MEAN_MOTION":13.18687053,"ECCENTRICITY":0.0001679,"INCLINATION":87.9161,"RA_OF_ASC_NODE":340.6245,"ARG_OF_PERICENTER":84.1674,"MEAN_ANOMALY":275.9649,"EPHEMERIS_TYPE":0,"CLASSIFICATION_TYPE":"U","NORAD_CAT_ID":50504,"ELEMENT_SET_NO":999,"REV_AT_EPOCH":21818,"BSTAR":-0.00011906,"MEAN_MOTION_DOT":-3.4e-07,"MEAN_MOTION_DDOT":0.0},{"OBJECT_NAME":"ONEWEB-0410","OBJECT_ID":"2022-012A","EPOCH":"2026-05-22T02:17:08.568384","MEAN_MOTION":13.17650553,"ECCENTRICITY":0.0003007,"INCLINATION":87.9166,"RA_OF_ASC_NODE":11.0431,"ARG_OF_PERICENTER":100.5646,"MEAN_ANOMALY":259.5824,"EPHEMERIS_TYPE":0,"CLASSIFICATION_TYPE":"U","NORAD_CAT_ID":51622,"ELEMENT_SET_NO":999,"REV_AT_EPOCH":21026,"BSTAR":-1.7283e-05,"MEAN_MOTION_DOT":6e-08,"MEAN_MOTION_DDOT":0.0},{"OBJECT_NAME":"ONEWEB-0411","OBJECT_ID":"2022-012B","EPOCH":"2026-05-22T03:04:01.620192","MEAN_MOTION":13.10372405,"ECCENTRICITY":0.0001273,"INCLINATION":87.8859,"RA_OF_ASC_NODE":41.4521,"ARG_OF_PERICENTER":78.666,"MEAN_ANOMALY":281.461,"EPHEMERIS_TYPE":0,"CLASSIFICATION_TYPE":"U","NORAD_CAT_ID":51623,"ELEMENT_SET_NO":999,"REV_AT_EPOCH":20587,"BSTAR":-0.0017538,"MEAN_MOTION_DOT":-6e-06,"MEAN_MOTION_DDOT":0.0},{"OBJECT_NAME":"ONEWEB-0415","OBJECT_ID":"2022-012C","EPOCH":"2026-05-22T02:59:15.252576","MEAN_MOTION":13.10371439,"ECCENTRICITY":0.0001596,"INCLINATION":87.8849,"RA_OF_ASC_NODE":41.453,"ARG_OF_PERICENTER":82.8673,"MEAN_ANOMALY":277.2636,"EPHEMERIS_TYPE":0,"CLASSIFICATION_TYPE":"U","NORAD_CAT_ID":51624,"ELEMENT_SET_NO":999,"REV_AT_EPOCH":20587,"BSTAR":-0.0015427,"MEAN_MOTION_DOT":-5.26e-06,"MEAN_MOTION_DDOT":0.0},{"OBJECT_NAME":"ONEWEB-0416","OBJECT_ID":"2022-012D","EPOCH":"2026-05-22T03:15:58.420512","MEAN_MOTION":13.10374831,"ECCENTRICITY":0.0001609,"INCLINATION":87.8853,"RA_OF_ASC_NODE":41.4697,"ARG_OF_PERICENTER":91.964,"MEAN_ANOMALY":268.1671,"EPHEMERIS_TYPE":0,"CLASSIFICATION_TYPE":"U","NORAD_CAT_ID":51625,"ELEMENT_SET_NO":999,"REV_AT_EPOCH":20591,"BSTAR":-0.0016738,"MEAN_MOTION_DOT":-5.72e-06,"MEAN_MOTION_DDOT":0.0},{"OBJECT_NAME":"ONEWEB-0422","OBJECT_ID":"2022-012E","EPOCH":"2026-05-22T02:31:43.621536","MEAN_MOTION":13.17649089,"ECCENTRICITY":0.0001774,"INCLINATION":87.9166,"RA_OF_ASC_NODE":11.0426,"ARG_OF_PERICENTER":63.4069,"MEAN_ANOMALY":296.7244,"EPHEMERIS_TYPE":0,"CLASSIFICATION_TYPE":"U","NORAD_CAT_ID":51626,"ELEMENT_SET_NO":999,"REV_AT_EPOCH":21037,"BSTAR":-8.4034e-05,"MEAN_MOTION_DOT":-2e-07,"MEAN_MOTION_DDOT":0.0},{"OBJECT_NAME":"ONEWEB-0423","OBJECT_ID":"2022-012F","EPOCH":"2026-05-22T02:22:00.541632","MEAN_MOTION":13.17648487,"ECCENTRICITY":0.0001915,"INCLINATION":87.916,"RA_OF_ASC_NODE":11.051,"ARG_OF_PERICENTER":84.2475,"MEAN_ANOMALY":275.8875,"EPHEMERIS_TYPE":0,"CLASSIFICATION_TYPE":"U","NORAD_CAT_ID":51627,"ELEMENT_SET_NO":999,"REV_AT_EPOCH":21026,"BSTAR":7.112500000000001e-06,"MEAN_MOTION_DOT":1.6e-07,"MEAN_MOTION_DDOT":0.0},{"OBJECT_NAME":"ONEWEB-0425","OBJECT_ID":"2022-012G","EPOCH":"2026-05-22T03:30:21.216096","MEAN_MOTION":13.10375869,"ECCENTRICITY":0.0002141,"INCLINATION":87.8854,"RA_OF_ASC_NODE":41.4504,"ARG_OF_PERICENTER":84.0128,"MEAN_ANOMALY":276.1244,"EPHEMERIS_TYPE":0,"CLASSIFICATION_TYPE":"U","NORAD_CAT_ID":51628,"ELEMENT_SET_NO":999,"REV_AT_EPOCH":20591,"BSTAR":-0.00054215,"MEAN_MOTION_DOT":-1.77e-06,"MEAN_MOTION_DDOT":0.0},{"OBJECT_NAME":"ONEWEB-0428","OBJECT_ID":"2022-012H","EPOCH":"2026-05-22T03:01:38.453664","MEAN_MOTION":13.10371672,"ECCENTRICITY":0.0001869,"INCLINATION":87.885,"RA_OF_ASC_NODE":41.4621,"ARG_OF_PERICENTER":78.0748,"MEAN_ANOMALY":282.0589,"EPHEMERIS_TYPE":0,"CLASSIFICATION_TYPE":"U","NORAD_CAT_ID":51629,"ELEMENT_SET_NO":999,"REV_AT_EPOCH":20587,"BSTAR":-0.0017884,"MEAN_MOTION_DOT":-6.12e-06,"MEAN_MOTION_DDOT":0.0},{"OBJECT_NAME":"ONEWEB-0431","OBJECT_ID":"2022-012J","EPOCH":"2026-05-22T04:08:23.823744","MEAN_MOTION":13.10372849,"ECCENTRICITY":0.0001259,"INCLINATION":87.8854,"RA_OF_ASC_NODE":41.4445,"ARG_OF_PERICENTER":73.4075,"MEAN_ANOMALY":286.7191,"EPHEMERIS_TYPE":0,"CLASSIFICATION_TYPE":"U","NORAD_CAT_ID":51630,"ELEMENT_SET_NO":999,"REV_AT_EPOCH":20593,"BSTAR":0.0017916000000000002,"MEAN_MOTION_DOT":6.38e-06,"MEAN_MOTION_DDOT":0.0},{"OBJECT_NAME":"ONEWEB-0434","OBJECT_ID":"2022-012K","EPOCH":"2026-05-22T03:35:19.386816","MEAN_MOTION":13.10375928,"ECCENTRICITY":0.0002461,"INCLINATION":87.886,"RA_OF_ASC_NODE":41.4735,"ARG_OF_PERICENTER":86.2311,"MEAN_ANOMALY":273.9098,"EPHEMERIS_TYPE":0,"CLASSIFICATION_TYPE":"U","NORAD_CAT_ID":51631,"ELEMENT_SET_NO":999,"REV_AT_EPOCH":20591,"BSTAR":-0.00014381,"MEAN_MOTION_DOT":-3.8e-07,"MEAN_MOTION_DDOT":0.0}]