ONEWEB-0427             
1 50499U 21132AG  26142.25120119  .00000095  00000+0  20717-3 0  9995
2 50499  87.9174 340.5952 0002006  93.3482 266.7880 13.18686990218199
ONEWEB-0429             
1 50500U 21132AH  26142.08595547 -.00000100  00000+0 -28613-3 0  9992
2 50500  87.9169 340.6544 0001762  87.3141 272.8193 13.18688830218142
ONEWEB-0430             
1 50501U 21132AJ  26142.07415732  .00000035  00000+0  56496-4 0  9995
2 50501  87.9162 340.6555 0001585  88.9236 271.2078 13.18686219218181
ONEWEB-0432             
1 50502U 21132AK  26142.25890564  .00000073  00000+0  15158-3 0  9997
2 50502  87.9169 340.5901 0001558 105.7250 254.4055 13.18713437218166
ONEWEB-0440             
1 50503U 21132AL  26142.24614933 -.00000037  00000+0 -12730-3 0  9996
2 50503  87.9171 340.6153 0001946  78.2925 281.8425 13.18688414218154
ONEWEB-0450             
1 50504U 21132AM  26142.23954666 -.00000034  00000+0 -11906-3 0  9997
2 50504  87.9161 340.6245 0001679  84.1674 275.9649 13.18687053218189
ONEWEB-0410             
1 51622U 22012A   26142.09523806  .00000006  00000+0 -17283-4 0  9992
2 51622  87.9166  11.0431 0003007 100.5646 259.5824 13.17650553210269
ONEWEB-0411             
1 51623U 22012B   26142.12779653 -.00000600  00000+0 -17538-2 0  9992
2 51623  87.8859  41.4521 0001273  78.6660 281.4610 13.10372405205877
ONEWEB-0415             
1 51624U 22012C   26142.12448209 -.00000526  00000+0 -15427-2 0  9995
2 51624  87.8849  41.4530 0001596  82.8673 277.2636 13.10371439205873
ONEWEB-0416             
1 51625U 22012D   26142.13609283 -.00000572  00000+0 -16738-2 0  9995
2 51625  87.8853  41.4697 0001609  91.9640 268.1671 13.10374831205915
ONEWEB-0422             
1 51626U 22012E   26142.10536599 -.00000020  00000+0 -84034-4 0  9996
2 51626  87.9166  11.0426 0001774  63.4069 296.7244 13.17649089210375
ONEWEB-0423             
1 51627U 22012F   26142.09861738  .00000016  00000+0  71125-5 0  9992
2 51627  87.9160  11.0510 0001915  84.2475 275.8875 13.17648487210260
ONEWEB-0425             
1 51628U 22012G   26142.14607889 -.00000177  00000+0 -54215-3 0  9993
2 51628  87.8854  41.4504 0002141  84.0128 276.1244 13.10375869205919
ONEWEB-0428             
1 51629U 22012H   26142.12613951 -.00000612  00000+0 -17884-2 0  9993
2 51629  87.8850  41.4621 0001869  78.0748 282.0589 13.10371672205874
ONEWEB-0431             
1 51630U 22012J   26142.17249796  .00000638  00000+0  17916-2 0  9994
2 51630  87.8854  41.4445 0001259  73.4075 286.7191 13.10372849205933
ONEWEB-0434             
1 51631U 22012K   26142.14952994 -.00000038  00000+0 -14381-3 0  9993
2 51631  87.8860  41.4735 0002461  86.2311 273.9098 13.10375928205917
